CCSDS_OMM_VERS = 2.0
CREATION_DATE  = 
ORIGINATOR     = 

OBJECT_NAME    = HULIANWANG DIGUI 13B
OBJECT_ID      = 2025-258B
CENTER_NAME    = EARTH
REF_FRAME      = TEME
TIME_SYSTEM    = UTC
MEAN_ELEMENT_THEORY = SGP/SGP4

EPOCH          = 2025-11-12T17:58:44.877792
MEAN_MOTION    = 14.25997308
ECCENTRICITY   = .00131634
INCLINATION    = 50.0040
RA_OF_ASC_NODE = 28.3330
ARG_OF_PERICENTER = 252.9196
MEAN_ANOMALY   = 107.0276

EPHEMERIS_TYPE = 0
CLASSIFICATION_TYPE = U
NORAD_CAT_ID   = 66413
ELEMENT_SET_NO = 999
REV_AT_EPOCH   = 38
BSTAR          = .12245957E-3
MEAN_MOTION_DOT = .134E-5
MEAN_MOTION_DDOT = 0

CCSDS_OMM_VERS = 2.0
CREATION_DATE  = 
ORIGINATOR     = 

OBJECT_NAME    = HULIANWANG DIGUI 13C
OBJECT_ID      = 2025-258C
CENTER_NAME    = EARTH
REF_FRAME      = TEME
TIME_SYSTEM    = UTC
MEAN_ELEMENT_THEORY = SGP/SGP4

EPOCH          = 2025-11-14T03:37:00.843744
MEAN_MOTION    = 14.25997093
ECCENTRICITY   = .00132401
INCLINATION    = 50.0037
RA_OF_ASC_NODE = 22.4091
ARG_OF_PERICENTER = 259.1186
MEAN_ANOMALY   = 100.8238

EPHEMERIS_TYPE = 0
CLASSIFICATION_TYPE = U
NORAD_CAT_ID   = 66414
ELEMENT_SET_NO = 999
REV_AT_EPOCH   = 58
BSTAR          = .14123527E-3
MEAN_MOTION_DOT = .179E-5
MEAN_MOTION_DDOT = 0

CCSDS_OMM_VERS = 2.0
CREATION_DATE  = 
ORIGINATOR     = 

OBJECT_NAME    = HULIANWANG DIGUI 13D
OBJECT_ID      = 2025-258D
CENTER_NAME    = EARTH
REF_FRAME      = TEME
TIME_SYSTEM    = UTC
MEAN_ELEMENT_THEORY = SGP/SGP4

EPOCH          = 2025-11-13T10:47:41.157024
MEAN_MOTION    = 14.26054300
ECCENTRICITY   = .00131512
INCLINATION    = 50.0052
RA_OF_ASC_NODE = 25.3749
ARG_OF_PERICENTER = 262.1757
MEAN_ANOMALY   = 97.7664

EPHEMERIS_TYPE = 0
CLASSIFICATION_TYPE = U
NORAD_CAT_ID   = 66415
ELEMENT_SET_NO = 999
REV_AT_EPOCH   = 48
BSTAR          = .14721443E-3
MEAN_MOTION_DOT = .194E-5
MEAN_MOTION_DDOT = 0

CCSDS_OMM_VERS = 2.0
CREATION_DATE  = 
ORIGINATOR     = 

OBJECT_NAME    = HULIANWANG DIGUI 13E
OBJECT_ID      = 2025-258E
CENTER_NAME    = EARTH
REF_FRAME      = TEME
TIME_SYSTEM    = UTC
MEAN_ELEMENT_THEORY = SGP/SGP4

EPOCH          = 2025-11-13T17:30:51.218208
MEAN_MOTION    = 14.26184541
ECCENTRICITY   = .00124517
INCLINATION    = 50.0060
RA_OF_ASC_NODE = 24.1903
ARG_OF_PERICENTER = 262.5123
MEAN_ANOMALY   = 97.4376

EPHEMERIS_TYPE = 0
CLASSIFICATION_TYPE = U
NORAD_CAT_ID   = 66416
ELEMENT_SET_NO = 999
REV_AT_EPOCH   = 52
BSTAR          = .13681995E-3
MEAN_MOTION_DOT = .17E-5
MEAN_MOTION_DDOT = 0

CCSDS_OMM_VERS = 2.0
CREATION_DATE  = 
ORIGINATOR     = 

OBJECT_NAME    = HULIANWANG DIGUI 13F
OBJECT_ID      = 2025-258F
CENTER_NAME    = EARTH
REF_FRAME      = TEME
TIME_SYSTEM    = UTC
MEAN_ELEMENT_THEORY = SGP/SGP4

EPOCH          = 2025-11-12T14:36:19.285056
MEAN_MOTION    = 14.26237961
ECCENTRICITY   = .00120581
INCLINATION    = 50.0012
RA_OF_ASC_NODE = 28.9164
ARG_OF_PERICENTER = 253.6630
MEAN_ANOMALY   = 106.2959

EPHEMERIS_TYPE = 0
CLASSIFICATION_TYPE = U
NORAD_CAT_ID   = 66417
ELEMENT_SET_NO = 999
REV_AT_EPOCH   = 36
BSTAR          = .12011125E-3
MEAN_MOTION_DOT = .13E-5
MEAN_MOTION_DDOT = 0

CCSDS_OMM_VERS = 2.0
CREATION_DATE  = 
ORIGINATOR     = 

OBJECT_NAME    = HULIANWANG DIGUI 13G
OBJECT_ID      = 2025-258G
CENTER_NAME    = EARTH
REF_FRAME      = TEME
TIME_SYSTEM    = UTC
MEAN_ELEMENT_THEORY = SGP/SGP4

EPOCH          = 2025-11-13T17:30:40.387104
MEAN_MOTION    = 14.26232788
ECCENTRICITY   = .00123816
INCLINATION    = 50.0008
RA_OF_ASC_NODE = 24.1756
ARG_OF_PERICENTER = 260.9439
MEAN_ANOMALY   = 99.0074

EPHEMERIS_TYPE = 0
CLASSIFICATION_TYPE = U
NORAD_CAT_ID   = 66418
ELEMENT_SET_NO = 999
REV_AT_EPOCH   = 52
BSTAR          = .13659578E-3
MEAN_MOTION_DOT = .17E-5
MEAN_MOTION_DDOT = 0

CCSDS_OMM_VERS = 2.0
CREATION_DATE  = 
ORIGINATOR     = 

OBJECT_NAME    = HULIANWANG DIGUI 13H
OBJECT_ID      = 2025-258H
CENTER_NAME    = EARTH
REF_FRAME      = TEME
TIME_SYSTEM    = UTC
MEAN_ELEMENT_THEORY = SGP/SGP4

EPOCH          = 2025-11-13T09:05:41.146080
MEAN_MOTION    = 14.26388063
ECCENTRICITY   = .00114709
INCLINATION    = 50.0011
RA_OF_ASC_NODE = 25.6544
ARG_OF_PERICENTER = 258.7384
MEAN_ANOMALY   = 101.2241

EPHEMERIS_TYPE = 0
CLASSIFICATION_TYPE = U
NORAD_CAT_ID   = 66419
ELEMENT_SET_NO = 999
REV_AT_EPOCH   = 47
BSTAR          = .13144392E-3
MEAN_MOTION_DOT = .158E-5
MEAN_MOTION_DDOT = 0

CCSDS_OMM_VERS = 2.0
CREATION_DATE  = 
ORIGINATOR     = 

OBJECT_NAME    = HULIANWANG DIGUI 13J
OBJECT_ID      = 2025-258J
CENTER_NAME    = EARTH
REF_FRAME      = TEME
TIME_SYSTEM    = UTC
MEAN_ELEMENT_THEORY = SGP/SGP4

EPOCH          = 2025-11-13T05:43:33.190176
MEAN_MOTION    = 14.26503563
ECCENTRICITY   = .0011017
INCLINATION    = 50.0032
RA_OF_ASC_NODE = 26.2522
ARG_OF_PERICENTER = 262.7671
MEAN_ANOMALY   = 97.1990

EPHEMERIS_TYPE = 0
CLASSIFICATION_TYPE = U
NORAD_CAT_ID   = 66420
ELEMENT_SET_NO = 999
REV_AT_EPOCH   = 44
BSTAR          = .12925203E-3
MEAN_MOTION_DOT = .153E-5
MEAN_MOTION_DDOT = 0

CCSDS_OMM_VERS = 2.0
CREATION_DATE  = 
ORIGINATOR     = 

OBJECT_NAME    = CZ-12 R/B
OBJECT_ID      = 2025-258K
CENTER_NAME    = EARTH
REF_FRAME      = TEME
TIME_SYSTEM    = UTC
MEAN_ELEMENT_THEORY = SGP/SGP4

EPOCH          = 2025-11-13T18:13:01.305696
MEAN_MOTION    = 14.42307889
ECCENTRICITY   = .00646633
INCLINATION    = 49.9960
RA_OF_ASC_NODE = 23.7027
ARG_OF_PERICENTER = 145.1923
MEAN_ANOMALY   = 215.3253

EPHEMERIS_TYPE = 0
CLASSIFICATION_TYPE = U
NORAD_CAT_ID   = 66421
ELEMENT_SET_NO = 999
REV_AT_EPOCH   = 53
BSTAR          = .58686924E-4
MEAN_MOTION_DOT = .28E-6
MEAN_MOTION_DDOT = 0

